H1 CPF 01  gfz 2021 05 23 00  6431 terrasarx 
H2 0702601  6201 31698    2021 05 23 00 59 42 2021 05 28 00 00 42   120 1 1  0 0 0
H9
10 0 59357  36702.000000  0   -3185014.042   6108468.207   -113558.485
10 0 59357  36822.000000  0   -3005198.683   6148095.323    789929.551
10 0 59357  36942.000000  0   -2773133.838   6076648.752   1679509.050
10 0 59357  37062.000000  0   -2494806.635   5894492.414   2539512.599
10 0 59357  37182.000000  0   -2176997.849   5604057.210   3354795.983
10 0 59357  37302.000000  0   -1827124.290   5209806.922   4111010.737
10 0 59357  37422.000000  0   -1453070.903   4718164.069   4794860.588
10 0 59357  37542.000000  0   -1063015.720   4137397.501   5394336.760
10 0 59357  37662.000000  0    -665252.566   3477474.390   5898926.779
10 0 59357  37782.000000  0    -268017.020   2749880.824   6299794.701
10 0 59357  37902.000000  0     120682.368   1967415.089   6589929.537
10 0 59357  38022.000000  0     493223.746   1143958.752   6764262.240
10 0 59357  38142.000000  0     842520.157    294227.527   6819748.552
10 0 59357  38262.000000  0    1162153.022   -566490.949   6755418.281
10 0 59357  38382.000000  0    1446489.393  -1422611.478   6572392.411
10 0 59357  38502.000000  0    1690781.395  -2258532.913   6273864.963
10 0 59357  38622.000000  0    1891245.999  -3058922.852   5865051.484
10 0 59357  38742.000000  0    2045124.049  -3809001.148   5353103.005
10 0 59357  38862.000000  0    2150717.212  -4494816.138   4746985.997
10 0 59357  38982.000000  0    2207402.989  -5103508.849   4057331.364
10 0 59357  39102.000000  0    2215628.222  -5623562.641   3296252.471
10 0 59357  39222.000000  0    2176877.814  -6045030.189   2477133.031
10 0 59357  39342.000000  0    2093621.094  -6359731.880   1614389.989
10 0 59357  39462.000000  0    1969238.309  -6561421.056    723216.218
10 0 59357  39582.000000  0    1807926.701  -6645913.915   -180692.722
10 0 59357  39702.000000  0    1614589.705  -6611180.105  -1081423.979
10 0 59357  39822.000000  0    1394709.663  -6457386.512  -1963138.983
10 0 59357  39942.000000  0    1154209.075  -6186896.610  -2810359.066
10 0 59357  40062.000000  0     899305.467  -5804225.176  -3608243.217
10 0 59357  40182.000000  0     636363.999  -5315951.320  -4342849.578
10 0 59357  40302.000000  0     371748.923  -4730592.857  -5001377.403
10 0 59357  40422.000000  0     111679.025  -4058445.676  -5572384.223
10 0 59357  40542.000000  0    -137909.849  -3311392.292  -6045976.387
10 0 59357  40662.000000  0    -371492.349  -2502683.962  -6413969.669
10 0 59357  40782.000000  0    -584068.935  -1646701.597  -6670019.191
10 0 59357  40902.000000  0    -771267.122   -758700.217  -6809718.073
10 0 59357  41022.000000  0    -929426.861    145459.831  -6830665.642
10 0 59357  41142.000000  0   -1055669.133   1049590.403  -6732502.885
10 0 59357  41262.000000  0   -1147947.019   1937457.717  -6516917.742
10 0 59357  41382.000000  0   -1205078.279   2793066.304  -6187619.100
10 0 59357  41502.000000  0   -1226759.267   3600942.049  -5750281.521
10 0 59357  41622.000000  0   -1213560.099   4346410.347  -5212457.105
10 0 59357  41742.000000  0   -1166900.590   5015864.150  -4583456.817
10 0 59357  41862.000000  0   -1089007.915   5597018.398  -3874200.048
10 0 59357  41982.000000  0    -982855.806   6079143.846  -3097033.579
10 0 59357  42102.000000  0    -852086.425   6453275.467  -2265523.559
10 0 59357  42222.000000  0    -700916.359   6712391.800  -1394222.074
10 0 59357  42342.000000  0    -534029.123   6851558.251   -498411.882
10 0 59357  42462.000000  0    -356455.685   6868031.944    406165.096
10 0 59357  42582.000000  0    -173446.328   6761324.035   1303591.832
10 0 59357  42702.000000  0       9662.133   6533215.219   2178066.611
10 0 59357  42822.000000  0     187580.349   6187723.580   3014189.998
10 0 59357  42942.000000  0     355198.588   5731028.973   3797242.217
10 0 59357  43062.000000  0     507714.377   5171357.538   4513447.118
10 0 59357  43182.000000  0     640751.513   4518823.465   5150221.900
10 0 59357  43302.000000  0     750467.471   3785231.659   5696394.385
10 0 59357  43422.000000  0     833648.532   2983857.494   6142394.902
10 0 59357  43542.000000  0     887788.396   2129198.637   6480419.505
10 0 59357  43662.000000  0     911149.515   1236707.462   6704560.505
10 0 59357  43782.000000  0     902806.660    322508.254   6810903.619
10 0 59357  43902.000000  0     862671.717   -596893.631   6797591.380
10 0 59357  44022.000000  0     791499.048  -1504908.953   6664855.013
10 0 59357  44142.000000  0     690871.349  -2385163.813   6415010.978
10 0 59357  44262.000000  0     563166.184  -3221795.649   6052423.767
10 0 59357  44382.000000  0     411503.505  -3999741.201   5583432.052
10 0 59357  44502.000000  0     239676.319  -4705008.884   5016242.779
10 0 59357  44622.000000  0      52065.476  -5324935.217   4360795.326
10 0 59357  44742.000000  0    -146461.217  -5848422.171   3628593.517
10 0 59357  44862.000000  0    -350663.976  -6266146.331   2832505.942
10 0 59357  44982.000000  0    -555056.339  -6570735.315   1986539.202
10 0 59357  45102.000000  0    -754037.709  -6756905.996   1105588.806
10 0 59357  45222.000000  0    -942031.048  -6821565.353    205171.421
10 0 59357  45342.000000  0   -1113621.864  -6763865.154   -698858.342
10 0 59357  45462.000000  0   -1263693.394  -6585210.068  -1590596.398
10 0 59357  45582.000000  0   -1387555.411  -6289220.949  -2454376.814
10 0 59357  45702.000000  0   -1481064.087  -5881654.926  -3275053.396
10 0 59357  45822.000000  0   -1540729.636  -5370283.350  -4038269.638
10 0 59357  45942.000000  0   -1563808.697  -4764730.989  -4730710.094
10 0 59357  46062.000000  0   -1548379.581  -4076282.779  -5340328.061
10 0 59357  46182.000000  0   -1493399.296  -3317663.749  -5856547.556
10 0 59357  46302.000000  0   -1398741.138  -2502796.584  -6270437.419
10 0 59357  46422.000000  0   -1265212.355  -1646541.341  -6574854.825
10 0 59357  46542.000000  0   -1094552.247   -764423.940  -6764556.807
10 0 59357  46662.000000  0    -889411.179    127642.276  -6836280.988
10 0 59357  46782.000000  0    -653309.645   1013637.791  -6788794.785
10 0 59357  46902.000000  0    -390578.737   1877716.950  -6622913.960
10 0 59357  47022.000000  0    -106283.731   2704483.848  -6341490.330
10 0 59357  47142.000000  0     193869.845   3479261.743  -5949369.892
10 0 59357  47262.000000  0     503646.979   4188352.094  -5453317.911
10 0 59357  47382.000000  0     816407.221   4819277.082  -4861912.635
10 0 59357  47502.000000  0    1125241.091   5361004.543  -4185408.939
10 0 59357  47622.000000  0    1423116.846   5804149.610  -3435570.301
10 0 59357  47742.000000  0    1703034.076   6141147.689  -2625472.173
10 0 59357  47862.000000  0    1958181.062   6366395.982  -1769278.928
10 0 59357  47982.000000  0    2182092.464   6476358.879   -881996.658
10 0 59357  48102.000000  0    2368803.063   6469632.722     20793.576
10 0 59357  48222.000000  0    2512993.270   6346967.914    923215.530
10 0 59357  48342.000000  0    2610122.762   6111247.973   1809384.415
10 0 59357  48462.000000  0    2656548.797   5767425.993   2663694.650
10 0 59357  48582.000000  0    2649626.520   5322420.123   3471102.532
10 0 59357  48702.000000  0    2587788.665   4784970.273   4217398.020
10 0 59357  48822.000000  0    2470601.815   4165459.733   4889460.916
10 0 59357  48942.000000  0    2298796.351   3475703.108   5475492.717
10 0 59357  49062.000000  0    2074273.360   2728712.983   5965219.122
10 0 59357  49182.000000  0    1800088.207   1938448.955   6350066.042
10 0 59357  49302.000000  0    1480408.971   1119551.307   6623305.002
10 0 59357  49422.000000  0    1120451.731    287066.273   6780163.583
10 0 59357  49542.000000  0     726394.765   -543829.595   6817902.936
10 0 59357  49662.000000  0     305272.324  -1358105.533   6735864.406
10 0 59357  49782.000000  0    -135151.174  -2141148.666   6535480.327
10 0 59357  49902.000000  0    -586524.324  -2879026.434   6220250.250
10 0 59357  50022.000000  0   -1040065.728  -3558735.423   5795681.729
10 0 59357  50142.000000  0   -1486731.731  -4168431.223   5269199.052
10 0 59357  50262.000000  0   -1917395.439  -4697639.129   4650022.076
10 0 59357  50382.000000  0   -2323033.805  -5137442.293   3949011.940
10 0 59357  50502.000000  0   -2694917.631  -5480641.503   3178483.601
10 0 59357  50622.000000  0   -3024798.901  -5721880.310   2351988.932
10 0 59357  50742.000000  0   -3305091.795  -5857734.330   1484076.484
10 0 59357  50862.000000  0   -3529043.510  -5886763.131    590030.808
10 0 59357  50982.000000  0   -3690890.346  -5809522.289   -314403.642
10 0 59357  51102.000000  0   -3785995.055  -5628535.427  -1213308.346
10 0 59357  51222.000000  0   -3810961.557  -5348225.825  -2090880.312
10 0 59357  51342.000000  0   -3763724.142  -4974809.448  -2931717.966
10 0 59357  51462.000000  0   -3643608.722  -4516152.795  -3721096.909
10 0 59357  51582.000000  0   -3451364.910  -3981600.365  -4445229.068
10 0 59357  51702.000000  0   -3189169.488  -3381777.278  -5091500.913
10 0 59357  51822.000000  0   -2860601.659  -2728371.404  -5648687.213
10 0 59357  51942.000000  0   -2470591.312  -2033900.682  -6107136.873
10 0 59357  52062.000000  0   -2025341.431  -1311470.869  -6458930.080
10 0 59357  52182.000000  0   -1532225.832   -574527.707  -6698003.704
10 0 59357  52302.000000  0    -999666.021    163390.678  -6820243.903
10 0 59357  52422.000000  0    -436989.370    888896.586  -6823548.574
10 0 59357  52542.000000  0     145731.070   1588989.411  -6707859.627
10 0 59357  52662.000000  0     737851.206   2251282.141  -6475164.377
10 0 59357  52782.000000  0    1328346.162   2864216.719  -6129467.228
10 0 59357  52902.000000  0    1906011.441   3417264.028  -5676727.550
10 0 59357  53022.000000  0    2459671.761   3901105.028  -5124766.560
10 0 59357  53142.000000  0    2978395.062   4307790.701  -4483143.843
99
